STARLINK-5924           
1 55963U 23037BB  26068.88676844 -.00000038  00000+0  45803-5 0  9992
2 55963  69.9983 263.9199 0002988 270.0052  90.0765 14.98330037164507
ADRAS-J                 
1 58992U 24034A   26068.91589465  .00004016  00000+0  21471-3 0  9993
2 58992  98.2230  88.3954 0075813  99.4078 261.5731 15.13266815112352
